[{"OBJECT_NAME":"STARLINK-5824","OBJECT_ID":"2023-088V","EPOCH":"2026-03-08T09:27:07.789824","MEAN_MOTION":15.02537743,"ECCENTRICITY":0.00018063,"INCLINATION":43.005,"RA_OF_ASC_NODE":114.597,"ARG_OF_PERICENTER":267.5704,"MEAN_ANOMALY":92.4932,"EPHEMERIS_TYPE":0,"CLASSIFICATION_TYPE":"U","NORAD_CAT_ID":57067,"ELEMENT_SET_NO":999,"REV_AT_EPOCH":15017,"BSTAR":-0.00025350849,"MEAN_MOTION_DOT":-3.627e-5,"MEAN_MOTION_DDOT":0},{"OBJECT_NAME":"STUDSAT","OBJECT_ID":"2010-035B","EPOCH":"2026-03-09T18:37:00.077376","MEAN_MOTION":15.04045903,"ECCENTRICITY":0.00117838,"INCLINATION":98.1026,"RA_OF_ASC_NODE":330.9975,"ARG_OF_PERICENTER":15.8359,"MEAN_ANOMALY":344.3232,"EPHEMERIS_TYPE":0,"CLASSIFICATION_TYPE":"U","NORAD_CAT_ID":36796,"ELEMENT_SET_NO":999,"REV_AT_EPOCH":85020,"BSTAR":0.00039642444,"MEAN_MOTION_DOT":5.425e-5,"MEAN_MOTION_DDOT":0}]
